HIMAWARI-8              
1 40267U 14060A   23249.54494142 -.00000287  00000+0  00000+0 0  9999
2 40267   0.0280 260.7594 0000800 279.6575 141.7757  1.00271374 32588
